[{"OBJECT_NAME":"STARLINK-4343","OBJECT_ID":"2022-077H","EPOCH":"2026-03-09T22:32:47.646240","MEAN_MOTION":15.05646071,"ECCENTRICITY":0.00014833,"INCLINATION":97.6028,"RA_OF_ASC_NODE":251.4413,"ARG_OF_PERICENTER":85.0971,"MEAN_ANOMALY":275.0426,"EPHEMERIS_TYPE":0,"CLASSIFICATION_TYPE":"U","NORAD_CAT_ID":53050,"ELEMENT_SET_NO":999,"REV_AT_EPOCH":20101,"BSTAR":1.993622e-5,"MEAN_MOTION_DOT":2.27e-6,"MEAN_MOTION_DDOT":0},{"OBJECT_NAME":"OBJECT F","OBJECT_ID":"2025-292F","EPOCH":"2026-03-09T22:41:00.950496","MEAN_MOTION":15.06065121,"ECCENTRICITY":0.00151037,"INCLINATION":97.6416,"RA_OF_ASC_NODE":145.7425,"ARG_OF_PERICENTER":346.7214,"MEAN_ANOMALY":13.3613,"EPHEMERIS_TYPE":0,"CLASSIFICATION_TYPE":"U","NORAD_CAT_ID":66998,"ELEMENT_SET_NO":999,"REV_AT_EPOCH":1351,"BSTAR":0.00047210602,"MEAN_MOTION_DOT":6.85e-5,"MEAN_MOTION_DDOT":0}]
